[{"OBJECT_NAME":"EAGLET-I","OBJECT_ID":"2018-099AJ","EPOCH":"2026-03-09T16:28:56.807904","MEAN_MOTION":15.12108145,"ECCENTRICITY":0.00104863,"INCLINATION":97.4369,"RA_OF_ASC_NODE":120.9821,"ARG_OF_PERICENTER":336.8524,"MEAN_ANOMALY":23.2233,"EPHEMERIS_TYPE":0,"CLASSIFICATION_TYPE":"U","NORAD_CAT_ID":43790,"ELEMENT_SET_NO":999,"REV_AT_EPOCH":39729,"BSTAR":0.0003526184,"MEAN_MOTION_DOT":6.017e-5,"MEAN_MOTION_DDOT":0},{"OBJECT_NAME":"STARLINK-1451","OBJECT_ID":"2020-035M","EPOCH":"2026-03-09T09:59:04.620480","MEAN_MOTION":15.10044289,"ECCENTRICITY":0.00017292,"INCLINATION":53.0538,"RA_OF_ASC_NODE":67.2968,"ARG_OF_PERICENTER":37.5648,"MEAN_ANOMALY":322.5463,"EPHEMERIS_TYPE":0,"CLASSIFICATION_TYPE":"U","NORAD_CAT_ID":45668,"ELEMENT_SET_NO":999,"REV_AT_EPOCH":31870,"BSTAR":0.0020089514,"MEAN_MOTION_DOT":0.00032913,"MEAN_MOTION_DDOT":0}]
